54663,ONEWEB-0597,2022,108.94,148.0,+,87.93,Active,1,LEO,USA,UK,Commercial,Communications,Falcon,1 54663U 22166X   24325.50772926  .00000069  00000+0  13560-3 0  9997,2 54663  87.9314 358.2620 0002100  99.0909 261.0463 13.21823034 95758,13.21823034,0.00021,LEO
54664,ONEWEB-0600,2022,108.94,148.0,+,87.93,Active,1,LEO,USA,UK,Commercial,Communications,Falcon,1 54664U 22166Y   24325.56607500 -.00000129  00000+0 -34456-3 0  9995,2 54664  87.9310 358.2816 0002082  96.6991 263.4380 13.21822559 95738,13.21822559,0.0002082,LEO
54665,ONEWEB-0601,2022,108.94,148.0,+,87.93,Active,1,LEO,USA,UK,Commercial,Communications,Falcon,1 54665U 22166Z   24325.10401072  .00000068  00000+0  13235-3 0  9994,2 54665  87.9321 358.3498 0002149 106.3302 253.8069 13.21823011 95862,13.21823011,0.0002149,LEO
54666,ONEWEB-0602,2022,108.94,148.0,+,87.93,Active,1,LEO,USA,UK,Commercial,Communications,Falcon,1 54666U 22166AA  24325.52350464  .00000017  00000+0  10466-4 0  9997,2 54666  87.9317 358.2687 0002167 100.1843 259.9535 13.21824470 95763,13.2182447,0.0002167,LEO
54667,ONEWEB-0603,2022,108.94,148.0,+,87.93,Active,1,LEO,USA,UK,Commercial,Communications,Falcon,1 54667U 22166AB  24325.52824316  .00000030  00000+0  41183-4 0  9995,2 54667  87.9291 358.2641 0002162 102.0024 258.1352 13.21825113 95697,13.21825113,0.0002162,LEO
54668,ONEWEB-0604,2022,108.94,148.0,+,87.93,Active,1,LEO,USA,UK,Commercial,Communications,Falcon,1 54668U 22166AC  24325.51561828  .00000022  00000+0  22055-4 0  9999,2 54668  87.9310 358.2430 0002157  95.4648 264.6732 13.21823385 95656,13.21823385,0.0002157,LEO
54669,ONEWEB-0605,2022,108.94,148.0,+,87.93,Active,1,LEO,USA,UK,Commercial,Communications,Falcon,1 54669U 22166AD  24325.05512088  .00000114  00000+0  24379-3 0  9995,2 54669  87.9314 358.3663 0001973 116.8783 243.2553 13.21827254 95667,13.21827254,0.0001973,LEO
54670,ONEWEB-0606,2022,108.94,148.0,+,87.93,Active,1,LEO,USA,UK,Commercial,Communications,Falcon,1 54670U 22166AE  24325.53137742  .00000075  00000+0  14919-3 0  9995,2 54670  87.9318 358.2704 0001669  91.7217 268.4108 13.21828691 95787,13.21828691,0.0001669,LEO
